{"type": "FeatureCollection", "features": [ {"type": "Feature", "properties": {"norad_id": 66534, "name": "STARLINK-35976", "group": "last-30-days", "lat": 25.787656296669073, "lon": 105.65080644974074, "alt_km": 402.68580958135954, "timestamp": "2025-12-09T05:43:19.509390+00:00", "meta": {"OBJECT_NAME": "STARLINK-35976", "OBJECT_ID": "2025-265U", "EPOCH": "2025-12-08T20:00:01.999008", "MEAN_MOTION": 15.5536111, "ECCENTRICITY": 0.0001491, "INCLINATION": 43, "RA_OF_ASC_NODE": 76.8034, "ARG_OF_PERICENTER": 278.53, "MEAN_ANOMALY": 11.7012, "EPHEMERIS_TYPE": 0, "CLASSIFICATION_TYPE": "U", "NORAD_CAT_ID": 66534, "ELEMENT_SET_NO": 999, "REV_AT_EPOCH": 436, "BSTAR": -0.033175, "MEAN_MOTION_DOT": -0.02063453, "MEAN_MOTION_DDOT": 0}, "tle": {"line1": "1 66534U 25265U   25342.83335647 -.02063453  00000+0 -33175-1 0  9993", "line2": "2 66534  43.0000  76.8034 0001491 278.5300  11.7012 15.55361110  4364"}}, "geometry": {"type": "Point", "coordinates": [105.65080644974074, 25.787656296669073]}}, {"type": "Feature", "properties": {"norad_id": 66535, "name": "STARLINK-35514", "group": "last-30-days", "lat": 26.895348649925545, "lon": 107.39346872017856, "alt_km": 402.63326992628026, "timestamp": "2025-12-09T05:43:19.509400+00:00", "meta": {"OBJECT_NAME": "STARLINK-35514", "OBJECT_ID": "2025-265V", "EPOCH": "2025-12-08T20:00:01.999008", "MEAN_MOTION": 15.55362101, "ECCENTRICITY": 0.0001406, "INCLINATION": 43.0001, "RA_OF_ASC_NODE": 76.7987, "ARG_OF_PERICENTER": 272.5132, "MEAN_ANOMALY": 19.6345, "EPHEMERIS_TYPE": 0, "CLASSIFICATION_TYPE": "U", "NORAD_CAT_ID": 66535, "ELEMENT_SET_NO": 999, "REV_AT_EPOCH": 436, "BSTAR": -0.03316, "MEAN_MOTION_DOT": -0.02062621, "MEAN_MOTION_DDOT": 0}, "tle": {"line1": "1 66535U 25265V   25342.83335647 -.02062621  00000+0 -33160-1 0  9994", "line2": "2 66535  43.0001  76.7987 0001406 272.5132  19.6345 15.55362101  4362"}}, "geometry": {"type": "Point", "coordinates": [107.39346872017856, 26.895348649925545]}}, {"type": "Feature", "properties": {"norad_id": 66536, "name": "STARLINK-35640", "group": "last-30-days", "lat": 27.981688322558043, "lon": 109.17147285366788, "alt_km": 402.4079843492027, "timestamp": "2025-12-09T05:43:19.509410+00:00", "meta": {"OBJECT_NAME": "STARLINK-35640", "OBJECT_ID": "2025-265W", "EPOCH": "2025-12-08T20:00:01.999008", "MEAN_MOTION": 15.55362371, "ECCENTRICITY": 0.0001546, "INCLINATION": 43.0001, "RA_OF_ASC_NODE": 76.794, "ARG_OF_PERICENTER": 279.0757, "MEAN_ANOMALY": 14.9861, "EPHEMERIS_TYPE": 0, "CLASSIFICATION_TYPE": "U", "NORAD_CAT_ID": 66536, "ELEMENT_SET_NO": 999, "REV_AT_EPOCH": 434, "BSTAR": -0.033151, "MEAN_MOTION_DOT": -0.02062268, "MEAN_MOTION_DDOT": 0}, "tle": {"line1": "1 66536U 25265W   25342.83335647 -.02062268  00000+0 -33151-1 0  9992", "line2": "2 66536  43.0001  76.7940 0001546 279.0757  14.9861 15.55362371  4340"}}, "geometry": {"type": "Point", "coordinates": [109.17147285366788, 27.981688322558043]}}, {"type": "Feature", "properties": {"norad_id": 66537, "name": "STARLINK-35582", "group": "last-30-days", "lat": 29.04381116931023, "lon": 110.98376253991712, "alt_km": 402.3234142193405, "timestamp": "2025-12-09T05:43:19.509420+00:00", "meta": {"OBJECT_NAME": "STARLINK-35582", "OBJECT_ID": "2025-265X", "EPOCH": "2025-12-08T20:00:01.999008", "MEAN_MOTION": 15.55364994, "ECCENTRICITY": 0.0001441, "INCLINATION": 43.0002, "RA_OF_ASC_NODE": 76.7892, "ARG_OF_PERICENTER": 274.351, "MEAN_ANOMALY": 21.6257, "EPHEMERIS_TYPE": 0, "CLASSIFICATION_TYPE": "U", "NORAD_CAT_ID": 66537, "ELEMENT_SET_NO": 999, "REV_AT_EPOCH": 436, "BSTAR": -0.033166, "MEAN_MOTION_DOT": -0.02063202, "MEAN_MOTION_DDOT": 0}, "tle": {"line1": "1 66537U 25265X   25342.83335647 -.02063202  00000+0 -33166-1 0  9998", "line2": "2 66537  43.0002  76.7892 0001441 274.3510  21.6257 15.55364994  4366"}}, "geometry": {"type": "Point", "coordinates": [110.98376253991712, 29.04381116931023]}}, {"type": "Feature", "properties": {"norad_id": 66538, "name": "STARLINK-35577", "group": "last-30-days", "lat": 30.082205923913207, "lon": 112.83526719085005, "alt_km": 402.18480400553835, "timestamp": "2025-12-09T05:43:19.509431+00:00", "meta": {"OBJECT_NAME": "STARLINK-35577", "OBJECT_ID": "2025-265Y", "EPOCH": "2025-12-08T20:00:01.999008", "MEAN_MOTION": 15.55358727, "ECCENTRICITY": 0.0001597, "INCLINATION": 43.0003, "RA_OF_ASC_NODE": 76.784, "ARG_OF_PERICENTER": 277.9899, "MEAN_ANOMALY": 19.9073, "EPHEMERIS_TYPE": 0, "CLASSIFICATION_TYPE": "U", "NORAD_CAT_ID": 66538, "ELEMENT_SET_NO": 999, "REV_AT_EPOCH": 436, "BSTAR": -0.033055, "MEAN_MOTION_DOT": -0.02056678, "MEAN_MOTION_DDOT": 0}, "tle": {"line1": "1 66538U 25265Y   25342.83335647 -.02056678  00000+0 -33055-1 0  9995", "line2": "2 66538  43.0003  76.7840 0001597 277.9899  19.9073 15.55358727  4365"}}, "geometry": {"type": "Point", "coordinates": [112.83526719085005, 30.082205923913207]}}, {"type": "Feature", "properties": {"norad_id": 66539, "name": "STARLINK-35697", "group": "last-30-days", "lat": 31.093732556131798, "lon": 114.72513603369568, "alt_km": 402.04882695415563, "timestamp": "2025-12-09T05:43:19.509443+00:00", "meta": {"OBJECT_NAME": "STARLINK-35697", "OBJECT_ID": "2025-265Z", "EPOCH": "2025-12-08T20:00:01.999008", "MEAN_MOTION": 15.55363407, "ECCENTRICITY": 0.0001552, "INCLINATION": 43.0005, "RA_OF_ASC_NODE": 76.7789, "ARG_OF_PERICENTER": 277.8084, "MEAN_ANOMALY": 22.0058, "EPHEMERIS_TYPE": 0, "CLASSIFICATION_TYPE": "U", "NORAD_CAT_ID": 66539, "ELEMENT_SET_NO": 999, "REV_AT_EPOCH": 436, "BSTAR": -0.033194, "MEAN_MOTION_DOT": -0.02064701, "MEAN_MOTION_DDOT": 0}, "tle": {"line1": "1 66539U 25265Z   25342.83335647 -.02064701  00000+0 -33194-1 0  9996", "line2": "2 66539  43.0005  76.7789 0001552 277.8084  22.0058 15.55363407  4365"}}, "geometry": {"type": "Point", "coordinates": [114.72513603369568, 31.093732556131798]}}, {"type": "Feature", "properties": {"norad_id": 66540, "name": "STARLINK-35818", "group": "last-30-days", "lat": 32.0764709570936, "lon": 116.65560854687598, "alt_km": 401.90130482665336, "timestamp": "2025-12-09T05:43:19.509455+00:00", "meta": {"OBJECT_NAME": "STARLINK-35818", "OBJECT_ID": "2025-265AA", "EPOCH": "2025-12-08T20:00:01.999008", "MEAN_MOTION": 15.55364891, "ECCENTRICITY": 0.0001567, "INCLINATION": 43.0002, "RA_OF_ASC_NODE": 76.7743, "ARG_OF_PERICENTER": 279.294, "MEAN_ANOMALY": 22.4361, "EPHEMERIS_TYPE": 0, "CLASSIFICATION_TYPE": "U", "NORAD_CAT_ID": 66540, "ELEMENT_SET_NO": 999, "REV_AT_EPOCH": 436, "BSTAR": -0.033225, "MEAN_MOTION_DOT": -0.02066558, "MEAN_MOTION_DDOT": 0}, "tle": {"line1": "1 66540U 25265AA  25342.83335647 -.02066558  00000+0 -33225-1 0  9995", "line2": "2 66540  43.0002  76.7743 0001567 279.2940  22.4361 15.55364891  4366"}}, "geometry": {"type": "Point", "coordinates": [116.65560854687598, 32.0764709570936]}}, {"type": "Feature", "properties": {"norad_id": 66541, "name": "STARLINK-35796", "group": "last-30-days", "lat": 33.0289425942888, "lon": 118.6269453924617, "alt_km": 401.80464695826504, "timestamp": "2025-12-09T05:43:19.509465+00:00", "meta": {"OBJECT_NAME": "STARLINK-35796", "OBJECT_ID": "2025-265AB", "EPOCH": "2025-12-08T20:00:01.999008", "MEAN_MOTION": 15.55359108, "ECCENTRICITY": 0.0001589, "INCLINATION": 43, "RA_OF_ASC_NODE": 76.7698, "ARG_OF_PERICENTER": 278.5146, "MEAN_ANOMALY": 25.1348, "EPHEMERIS_TYPE": 0, "CLASSIFICATION_TYPE": "U", "NORAD_CAT_ID": 66541, "ELEMENT_SET_NO": 999, "REV_AT_EPOCH": 436, "BSTAR": -0.033083, "MEAN_MOTION_DOT": -0.02058295, "MEAN_MOTION_DDOT": 0}, "tle": {"line1": "1 66541U 25265AB  25342.83335647 -.02058295  00000+0 -33083-1 0  9997", "line2": "2 66541  43.0000  76.7698 0001589 278.5146  25.1348 15.55359108  4368"}}, "geometry": {"type": "Point", "coordinates": [118.6269453924617, 33.0289425942888]}}, {"type": "Feature", "properties": {"norad_id": 66542, "name": "STARLINK-35833", "group": "last-30-days", "lat": 33.94999663619271, "lon": 120.64110970199627, "alt_km": 401.65465707839667, "timestamp": "2025-12-09T05:43:19.509477+00:00", "meta": {"OBJECT_NAME": "STARLINK-35833", "OBJECT_ID": "2025-265AC", "EPOCH": "2025-12-08T20:00:01.999008", "MEAN_MOTION": 15.55357744, "ECCENTRICITY": 0.0001605, "INCLINATION": 43, "RA_OF_ASC_NODE": 76.7652, "ARG_OF_PERICENTER": 280.5833, "MEAN_ANOMALY": 24.9833, "EPHEMERIS_TYPE": 0, "CLASSIFICATION_TYPE": "U", "NORAD_CAT_ID": 66542, "ELEMENT_SET_NO": 999, "REV_AT_EPOCH": 436, "BSTAR": -0.033051, "MEAN_MOTION_DOT": -0.02056439, "MEAN_MOTION_DDOT": 0}, "tle": {"line1": "1 66542U 25265AC  25342.83335647 -.02056439  00000+0 -33051-1 0  9991", "line2": "2 66542  43.0000  76.7652 0001605 280.5833  24.9833 15.55357744  4364"}}, "geometry": {"type": "Point", "coordinates": [120.64110970199627, 33.94999663619271]}}, {"type": "Feature", "properties": {"norad_id": 66543, "name": "STARLINK-35315", "group": "last-30-days", "lat": 34.83731365709888, "lon": 122.6978870382088, "alt_km": 401.5911026316335, "timestamp": "2025-12-09T05:43:19.509511+00:00", "meta": {"OBJECT_NAME": "STARLINK-35315", "OBJECT_ID": "2025-265AD", "EPOCH": "2025-12-08T20:00:01.999008", "MEAN_MOTION": 15.55359256, "ECCENTRICITY": 0.0001619, "INCLINATION": 42.9998, "RA_OF_ASC_NODE": 76.7596, "ARG_OF_PERICENTER": 278.8072, "MEAN_ANOMALY": 28.6761, "EPHEMERIS_TYPE": 0, "CLASSIFICATION_TYPE": "U", "NORAD_CAT_ID": 66543, "ELEMENT_SET_NO": 999, "REV_AT_EPOCH": 425, "BSTAR": -0.033079, "MEAN_MOTION_DOT": -0.02058086, "MEAN_MOTION_DDOT": 0}, "tle": {"line1": "1 66543U 25265AD  25342.83335647 -.02058086  00000+0 -33079-1 0  9992", "line2": "2 66543  42.9998  76.7596 0001619 278.8072  28.6761 15.55359256  4255"}}, "geometry": {"type": "Point", "coordinates": [122.6978870382088, 34.83731365709888]}}]}